GLOBALSTAR M063         
1 26081U 00008A   24290.73162770 -.00000007  00000+0  11064-2 0  9996
2 26081  51.9980  32.7396 0004795 198.4292 315.4873 11.86162271128682
GLOBALSTAR M062         
1 26082U 00008B   24291.23123517 -.00000060  00000+0  27549-3 0  9994
2 26082  51.9836  90.2308 0006217 318.9529 211.9699 12.43450873128899
GLOBALSTAR M060         
1 26083U 00008C   24291.02852968 -.00000144  00000+0 -52445-3 0  9998
2 26083  52.0048  16.4355 0002962   0.4637 170.4767 12.17646100122929
GLOBALSTAR M064         
1 26084U 00008D   24290.92684378 -.00000008  00000+0  10712-2 0  9993
2 26084  52.0003 133.9241 0001123 352.1842   7.8973 11.88524447138287
GLOBALSTAR M065         
1 31571U 07020A   24291.25396340 -.00000125  00000+0 -11816-3 0  9995
2 31571  51.9891 245.6648 0010124 124.9250  14.9857 12.61981048803036
GLOBALSTAR M069         
1 31573U 07020C   24290.38374069 -.00000039  00000+0  38181-3 0  9991
2 31573  51.9943 204.8077 0001242  32.1427 100.6888 12.56478471803746
GLOBALSTAR M072         
1 31574U 07020D   24291.03381795 -.00000048  00000+0  31236-3 0  9993
2 31574  52.0084 298.0624 0000112 344.7914  45.4457 12.62266769802273
GLOBALSTAR M071         
1 31576U 07020F   24291.25173681 -.00000017  00000+0  48700-3 0  9992
2 31576  52.0061 206.6085 0001216  12.6880 150.7988 12.62260335803784
